[{"OBJECT_NAME":"239ALFEROV (RS61S)","OBJECT_ID":"2025-155F","EPOCH":"2026-03-09T21:46:33.382848","MEAN_MOTION":15.29933217,"ECCENTRICITY":0.00084878,"INCLINATION":97.4469,"RA_OF_ASC_NODE":37.6373,"ARG_OF_PERICENTER":151.5904,"MEAN_ANOMALY":208.58,"EPHEMERIS_TYPE":0,"CLASSIFICATION_TYPE":"U","NORAD_CAT_ID":64881,"ELEMENT_SET_NO":999,"REV_AT_EPOCH":6561,"BSTAR":0.00067233359,"MEAN_MOTION_DOT":0.00019457,"MEAN_MOTION_DDOT":0},{"OBJECT_NAME":"STARLINK-34837","OBJECT_ID":"2025-192V","EPOCH":"2026-03-09T22:00:01.999584","MEAN_MOTION":15.3019202,"ECCENTRICITY":8.322e-5,"INCLINATION":53.1586,"RA_OF_ASC_NODE":231.2114,"ARG_OF_PERICENTER":82.97,"MEAN_ANOMALY":152.4738,"EPHEMERIS_TYPE":0,"CLASSIFICATION_TYPE":"U","NORAD_CAT_ID":65423,"ELEMENT_SET_NO":999,"REV_AT_EPOCH":573,"BSTAR":0.0028885231,"MEAN_MOTION_DOT":0.00086166,"MEAN_MOTION_DDOT":0}]
